$$SOE
2459580.500000000, A.D. 2022-Jan-01 00:00:00.0000, 3.784518735036669E+08, 5.837546972237283E+07, -1.673625195494384E+07,
2459587.500000000, A.D. 2022-Jan-08 00:00:00.0000, 3.773412394485837E+08, 6.993719432188739E+07, -1.602404253694691E+07,
2459594.500000000, A.D. 2022-Jan-15 00:00:00.0000, 3.759074613649625E+08, 8.143887700380379E+07, -1.529810458087110E+07,
2459601.500000000, A.D. 2022-Jan-22 00:00:00.0000, 3.741538457105869E+08, 9.287111842001976E+07, -1.455914523232978E+07,
2459608.500000000, A.D. 2022-Jan-29 00:00:00.0000, 3.720839863276783E+08, 1.042247155297491E+08, -1.380787574160644E+07,
2459615.500000000, A.D. 2022-Feb-05 00:00:00.0000, 3.697017501683130E+08, 1.154906695200158E+08, -1.304501019031169E+07,
2459622.500000000, A.D. 2022-Feb-12 00:00:00.0000, 3.670112650193714E+08, 1.266601918676894E+08, -1.227126453877040E+07,
2459629.500000000, A.D. 2022-Feb-19 00:00:00.0000, 3.640169079523457E+08, 1.377247109222170E+08, -1.148735568125903E+07,
2459636.500000000, A.D. 2022-Feb-26 00:00:00.0000, 3.607232932371345E+08, 1.486758783008076E+08, -1.069400044985594E+07,
2459643.500000000, A.D. 2022-Mar-05 00:00:00.0000, 3.571352599278914E+08, 1.595055744964885E+08, -9.891914633737482E+06,
2459650.500000000, A.D. 2022-Mar-12 00:00:00.0000, 3.532578593884905E+08, 1.702059136531830E+08, -9.081812041201986E+06,
2459657.500000000, A.D. 2022-Mar-19 00:00:00.0000, 3.490963428712872E+08, 1.807692475582466E+08, -8.264403609928139E+06,
2459664.500000000, A.D. 2022-Mar-26 00:00:00.0000, 3.446561492111596E+08, 1.911881688712524E+08, -7.440396568982139E+06,
2459671.500000000, A.D. 2022-Apr-02 00:00:00.0000, 3.399428927394344E+08, 2.014555135600437E+08, -6.610493664033711E+06,
2459678.500000000, A.D. 2022-Apr-09 00:00:00.0000, 3.349623517242361E+08, 2.115643625772299E+08, -5.775392470784500E+06,
2459685.500000000, A.D. 2022-Apr-16 00:00:00.0000, 3.297204577255376E+08, 2.215080434590200E+08, -4.935784776259318E+06,
2459692.500000000, A.D. 2022-Apr-23 00:00:00.0000, 3.242232846201373E+08, 2.312801329584100E+08, -4.092355822891369E+06,
2459699.500000000, A.D. 2022-Apr-30 00:00:00.0000, 3.184770354484981E+08, 2.408744585011959E+08, -3.245783426519319E+06,
2459706.500000000, A.D. 2022-May-07 00:00:00.0000, 3.124880301725959E+08, 2.502850965254839E+08, -2.396737409951314E+06,
2459713.500000000, A.D. 2022-May-14 00:00:00.0000, 3.062626957541928E+08, 2.595063707717598E+08, -1.545879230877236E+06,
2459720.500000000, A.D. 2022-May-21 00:00:00.0000, 2.998075565361400E+08, 2.685328513123380E+08, -6.938615548864752E+05,
2459727.500000000, A.D. 2022-May-28 00:00:00.0000, 2.931292244606369E+08, 2.773593533932234E+08, 1.586721931481808E+05,
2459734.500000000, A.D. 2022-Jun-04 00:00:00.0000, 2.862343894127974E+08, 2.859809358070659E+08, 1.011088249569073E+06,
2459741.500000000, A.D. 2022-Jun-11 00:00:00.0000, 2.791298098431973E+08, 2.943928988302992E+08, 1.862762892545745E+06,
2459748.500000000, A.D. 2022-Jun-18 00:00:00.0000, 2.718223037149659E+08, 3.025907817681087E+08, 2.713082781766772E+06,
2459755.500000000, A.D. 2022-Jun-25 00:00:00.0000, 2.643187398098797E+08, 3.105703601038149E+08, 3.561445253337234E+06,
2459762.500000000, A.D. 2022-Jul-02 00:00:00.0000, 2.566260295310786E+08, 3.183276422159376E+08, 4.407258553835198E+06,
2459769.500000000, A.D. 2022-Jul-09 00:00:00.0000, 2.487511195954444E+08, 3.258588658676661E+08, 5.249941993797496E+06,
2459776.500000000, A.D. 2022-Jul-16 00:00:00.0000, 2.407009855620902E+08, 3.331604955755445E+08, 6.088926115540639E+06,
2459783.500000000, A.D. 2022-Jul-23 00:00:00.0000, 2.324826239943157E+08, 3.402292209537297E+08, 6.923653084638983E+06,
2459790.500000000, A.D. 2022-Jul-30 00:00:00.0000, 2.241030433299550E+08, 3.470619527020664E+08, 7.753577025206611E+06,
2459797.500000000, A.D. 2022-Aug-06 00:00:00.0000, 2.155692570538275E+08, 3.536558169122136E+08, 8.578164023650914E+06,
2459804.500000000, A.D. 2022-Aug-13 00:00:00.0000, 2.068882783432592E+08, 3.600081504683855E+08, 9.396892103089511E+06,
2459811.500000000, A.D. 2022-Aug-20 00:00:00.0000, 1.980671146097181E+08, 3.661164970613778E+08, 1.020925127321514E+07,
2459818.500000000, A.D. 2022-Aug-27 00:00:00.0000, 1.891127619987662E+08, 3.719786031112751E+08, 1.101474359197429E+07,
2459825.500000000, A.D. 2022-Sep-03 00:00:00.0000, 1.800322000905904E+08, 3.775924135075243E+08, 1.181288320901152E+07,
2459832.500000000, A.D. 2022-Sep-10 00:00:00.0000, 1.708323868841363E+08, 3.829560672067242E+08, 1.260319638606572E+07,
2459839.500000000, A.D. 2022-Sep-17 00:00:00.0000, 1.615202540855166E+08, 3.880678927009997E+08, 1.338522149281269E+07,
2459846.500000000, A.D. 2022-Sep-24 00:00:00.0000, 1.521027027511564E+08, 3.929264033196716E+08, 1.415850896968842E+07,
2459853.500000000, A.D. 2022-Oct-01 00:00:00.0000, 1.425865995150104E+08, 3.975302923550588E+08, 1.492262123502624E+07,
2459860.500000000, A.D. 2022-Oct-08 00:00:00.0000, 1.329787737967032E+08, 4.018784285477086E+08, 1.567713254289693E+07,
2459867.500000000, A.D. 2022-Oct-15 00:00:00.0000, 1.232860150495830E+08, 4.059698531419175E+08, 1.642162897592831E+07,
2459874.500000000, A.D. 2022-Oct-22 00:00:00.0000, 1.135150678561914E+08, 4.098037768345035E+08, 1.715570863627121E+07,
2459881.500000000, A.D. 2022-Oct-29 00:00:00.0000, 1.036726273548948E+08, 4.133795740326824E+08, 1.787898159481820E+07,
2459888.500000000, A.D. 2022-Nov-05 00:00:00.0000, 9.376533708731794E+07, 4.166967771753510E+08, 1.859106963111040E+07,
2459895.500000000, A.D. 2022-Nov-12 00:00:00.0000, 8.379978729335113E+07, 4.197550723927870E+08, 1.929160604828635E+07,
2459902.500000000, A.D. 2022-Nov-19 00:00:00.0000, 7.378251292382796E+07, 4.225542955562769E+08, 1.998023555182168E+07,
2459909.500000000, A.D. 2022-Nov-26 00:00:00.0000, 6.371999162264537E+07, 4.250944283263509E+08, 2.065661413635993E+07,
2459916.500000000, A.D. 2022-Dec-03 00:00:00.0000, 5.361864183454102E+07, 4.273755941935032E+08, 2.132040896524253E+07,
2459923.500000000, A.D. 2022-Dec-10 00:00:00.0000, 4.348482107452501E+07, 4.293980545343711E+08, 2.197129824079472E+07,
2459930.500000000, A.D. 2022-Dec-17 00:00:00.0000, 3.332482437410498E+07, 4.311622046615485E+08, 2.260897106168112E+07,
2459937.500000000, A.D. 2022-Dec-24 00:00:00.0000, 2.314488300377743E+07, 4.326685698035752E+08, 2.323312725248784E+07,
2459944.500000000, A.D. 2022-Dec-31 00:00:00.0000, 1.295116381901685E+07, 4.339178011249474E+08, 2.384347714209938E+07,
2459951.500000000, A.D. 2023-Jan-07 00:00:00.0000, 2.749769342131525E+06, 4.349106727520521E+08, 2.443974135891816E+07,
2459958.500000000, A.D. 2023-Jan-14 00:00:00.0000, -7.453263395478828E+06, 4.356480803054389E+08, 2.502165086452016E+07,
2459965.500000000, A.D. 2023-Jan-21 00:00:00.0000, -1.765196590358599E+07, 4.361310377652417E+08, 2.558894702612537E+07,
2459972.500000000, A.D. 2023-Jan-28 00:00:00.0000, -2.784043951906654E+07, 4.363606724755149E+08, 2.614138137643874E+07,
2459979.500000000, A.D. 2023-Feb-04 00:00:00.0000, -3.801285514421065E+07, 4.363382213208212E+08, 2.667871532831150E+07,
2459986.500000000, A.D. 2023-Feb-11 00:00:00.0000, -4.816345323831989E+07, 4.360650278832012E+08, 2.720071999359080E+07,
2459993.500000000, A.D. 2023-Feb-18 00:00:00.0000, -5.828654413268360E+07, 4.355425397558733E+08, 2.770717604521605E+07,
2460000.500000000, A.D. 2023-Feb-25 00:00:00.0000, -6.837650841334066E+07, 4.347723058518020E+08, 2.819787358581176E+07,
2460007.500000000, A.D. 2023-Mar-04 00:00:00.0000, -7.842779727631831E+07, 4.337559737261187E+08, 2.867261201550072E+07,
2460014.500000000, A.D. 2023-Mar-11 00:00:00.0000, -8.843493283315209E+07, 4.324952869130349E+08, 2.913119989689979E+07,
2460021.500000000, A.D. 2023-Mar-18 00:00:00.0000, -9.839250832542764E+07, 4.309920822276425E+08, 2.957345480943903E+07,
2460028.500000000, A.D. 2023-Mar-25 00:00:00.0000, -1.082951880501141E+08, 4.292482869845840E+08, 2.999920317090994E+07,
2460035.500000000, A.D. 2023-Apr-01 00:00:00.0000, -1.181377065759497E+08, 4.272659165252502E+08, 3.040828001974744E+07,
2460042.500000000, A.D. 2023-Apr-08 00:00:00.0000, -1.279148678713057E+08, 4.250470732764959E+08, 3.080052891480190E+07,
2460049.500000000, A.D. 2023-Apr-15 00:00:00.0000, -1.376215466848479E+08, 4.225939462322591E+08, 3.117580207663679E+07,
2460056.500000000, A.D. 2023-Apr-22 00:00:00.0000, -1.472526903747004E+08, 4.199088078002993E+08, 3.153396035507607E+07,
2460063.500000000, A.D. 2023-Apr-29 00:00:00.0000, -1.568033184601917E+08, 4.169940102640879E+08, 3.187487295680937E+07,
2460070.500000000, A.D. 2023-May-06 00:00:00.0000, -1.662685216638526E+08, 4.138519836442881E+08, 3.219841724068233E+07,
2460077.500000000, A.D. 2023-May-13 00:00:00.0000, -1.756434614240507E+08, 4.104852340678366E+08, 3.250447859745327E+07,
2460084.500000000, A.D. 2023-May-20 00:00:00.0000, -1.849233696471692E+08, 4.068963421525427E+08, 3.279295035236996E+07,
2460091.500000000, A.D. 2023-May-27 00:00:00.0000, -1.941035485090837E+08, 4.030879613759451E+08, 3.306373367023110E+07,
2460098.500000000, A.D. 2023-Jun-03 00:00:00.0000, -2.031793702516946E+08, 3.990628164521385E+08, 3.331673745951366E+07,
2460105.500000000, A.D. 2023-Jun-10 00:00:00.0000, -2.121462769541763E+08, 3.948237017003152E+08, 3.355187827197608E+07,
2460112.500000000, A.D. 2023-Jun-17 00:00:00.0000, -2.209997801933678E+08, 3.903734793423525E+08, 3.376908018439832E+07,
2460119.500000000, A.D. 2023-Jun-24 00:00:00.0000, -2.297354602767814E+08, 3.857150777824553E+08, 3.396827463742816E+07,
2460126.500000000, A.D. 2023-Jul-01 00:00:00.0000, -2.383489647988736E+08, 3.808514906945232E+08, 3.414940027583820E+07,
2460133.500000000, A.D. 2023-Jul-08 00:00:00.0000, -2.468360081987998E+08, 3.757857777381667E+08, 3.431240301086265E+07,
2460140.500000000, A.D. 2023-Jul-15 00:00:00.0000, -2.551923735987184E+08, 3.705210640729799E+08, 3.445723619036651E+07,
2460147.500000000, A.D. 2023-Jul-22 00:00:00.0000, -2.634139134019376E+08, 3.650605376323088E+08, 3.458386046909624E+07,
$$EOE